{
  "type": "FeatureCollection",
  "features": [
    {
      "type": "Feature",
      "properties": {
        "norad_id": 34615,
        "name": "COSMOS 2251 DEB",
        "group": "cosmos-2251-debris",
        "lat": -54.265570964283526,
        "lon": -96.5169401282293,
        "alt_km": 1158.005924962139,
        "timestamp": "2025-12-17T04:57:44.755538+00:00",
        "meta_object_name": "COSMOS 2251 DEB",
        "meta_object_id": "1993-036WL",
        "meta_epoch": "2025-12-16T14:11:08.742624",
        "meta_mean_motion": 13.52203855,
        "meta_eccentricity": 0.04009084,
        "meta_inclination": 74.0049,
        "meta_ra_of_asc_node": 287.9641,
        "meta_arg_of_pericenter": 194.3854,
        "meta_mean_anomaly": 347.6359,
        "meta_ephemeris_type": 0,
        "meta_classification_type": "U",
        "meta_norad_cat_id": 34615,
        "meta_element_set_no": 999,
        "meta_rev_at_epoch": 82867,
        "meta_bstar": 7.9709818e-05,
        "meta_mean_motion_dot": 6.6e-07,
        "meta_mean_motion_ddot": 0,
        "tle_line1": "1 34615U 93036WL  25350.59107341  .00000066  00000+0  79710-4 0  9994",
        "tle_line2": "2 34615  74.0049 287.9641 0400908 194.3854 347.6359 13.52203855828679"
      },
      "geometry": {
        "type": "Point",
        "coordinates": [
          -96.5169401282293,
          -54.265570964283526
        ]
      }
    },
    {
      "type": "Feature",
      "properties": {
        "norad_id": 34619,
        "name": "COSMOS 2251 DEB",
        "group": "cosmos-2251-debris",
        "lat": -30.6012766618641,
        "lon": 21.097799048847076,
        "alt_km": 664.0425690507864,
        "timestamp": "2025-12-17T04:57:44.755547+00:00",
        "meta_object_name": "COSMOS 2251 DEB",
        "meta_object_id": "1993-036WQ",
        "meta_epoch": "2025-12-16T23:04:15.144960",
        "meta_mean_motion": 14.64655687,
        "meta_eccentricity": 0.00947549,
        "meta_inclination": 74.0431,
        "meta_ra_of_asc_node": 191.8269,
        "meta_arg_of_pericenter": 285.7109,
        "meta_mean_anomaly": 73.3622,
        "meta_ephemeris_type": 0,
        "meta_classification_type": "U",
        "meta_norad_cat_id": 34619,
        "meta_element_set_no": 999,
        "meta_rev_at_epoch": 89360,
        "meta_bstar": 0.00018139745,
        "meta_mean_motion_dot": 9.95e-06,
        "meta_mean_motion_ddot": 0,
        "tle_line1": "1 34619U 93036WQ  25350.96128640  .00000995  00000+0  18140-3 0  9994",
        "tle_line2": "2 34619  74.0431 191.8269 0094754 285.7109  73.3622 14.64655687893602"
      },
      "geometry": {
        "type": "Point",
        "coordinates": [
          21.097799048847076,
          -30.6012766618641
        ]
      }
    },
    {
      "type": "Feature",
      "properties": {
        "norad_id": 34620,
        "name": "COSMOS 2251 DEB",
        "group": "cosmos-2251-debris",
        "lat": -20.21687947615185,
        "lon": 37.20744301580168,
        "alt_km": 693.0786682664311,
        "timestamp": "2025-12-17T04:57:44.755556+00:00",
        "meta_object_name": "COSMOS 2251 DEB",
        "meta_object_id": "1993-036WR",
        "meta_epoch": "2025-12-16T16:26:01.024512",
        "meta_mean_motion": 14.49164426,
        "meta_eccentricity": 0.00802291,
        "meta_inclination": 74.0516,
        "meta_ra_of_asc_node": 212.1403,
        "meta_arg_of_pericenter": 247.6666,
        "meta_mean_anomaly": 111.5976,
        "meta_ephemeris_type": 0,
        "meta_classification_type": "U",
        "meta_norad_cat_id": 34620,
        "meta_element_set_no": 999,
        "meta_rev_at_epoch": 86884,
        "meta_bstar": 0.0014854903,
        "meta_mean_motion_dot": 5.865e-05,
        "meta_mean_motion_ddot": 0,
        "tle_line1": "1 34620U 93036WR  25350.68473408  .00005865  00000+0  14855-2 0  9999",
        "tle_line2": "2 34620  74.0516 212.1403 0080229 247.6666 111.5976 14.49164426868846"
      },
      "geometry": {
        "type": "Point",
        "coordinates": [
          37.20744301580168,
          -20.21687947615185
        ]
      }
    },
    {
      "type": "Feature",
      "properties": {
        "norad_id": 34622,
        "name": "COSMOS 2251 DEB",
        "group": "cosmos-2251-debris",
        "lat": 51.95290232124708,
        "lon": 97.55223129886897,
        "alt_km": 831.3604715740548,
        "timestamp": "2025-12-17T04:57:44.755565+00:00",
        "meta_object_name": "COSMOS 2251 DEB",
        "meta_object_id": "1993-036WT",
        "meta_epoch": "2025-12-16T07:08:22.882848",
        "meta_mean_motion": 14.22061184,
        "meta_eccentricity": 0.01045637,
        "meta_inclination": 74.0424,
        "meta_ra_of_asc_node": 300.6279,
        "meta_arg_of_pericenter": 22.238,
        "meta_mean_anomaly": 128.3959,
        "meta_ephemeris_type": 0,
        "meta_classification_type": "U",
        "meta_norad_cat_id": 34622,
        "meta_element_set_no": 999,
        "meta_rev_at_epoch": 86510,
        "meta_bstar": 0.00087736577,
        "meta_mean_motion_dot": 2.027e-05,
        "meta_mean_motion_ddot": 0,
        "tle_line1": "1 34622U 93036WT  25350.29748707  .00002027  00000+0  87737-3 0  9992",
        "tle_line2": "2 34622  74.0424 300.6279 0104563  22.2380 128.3959 14.22061184865109"
      },
      "geometry": {
        "type": "Point",
        "coordinates": [
          97.55223129886897,
          51.95290232124708
        ]
      }
    },
    {
      "type": "Feature",
      "properties": {
        "norad_id": 34626,
        "name": "COSMOS 2251 DEB",
        "group": "cosmos-2251-debris",
        "lat": 32.89501294468226,
        "lon": -34.13014540745878,
        "alt_km": 632.8970118679317,
        "timestamp": "2025-12-17T04:57:44.755574+00:00",
        "meta_object_name": "COSMOS 2251 DEB",
        "meta_object_id": "1993-036WX",
        "meta_epoch": "2025-12-16T22:33:08.102304",
        "meta_mean_motion": 14.72248793,
        "meta_eccentricity": 0.0026771,
        "meta_inclination": 74.0479,
        "meta_ra_of_asc_node": 315.7274,
        "meta_arg_of_pericenter": 42.6917,
        "meta_mean_anomaly": 16.8147,
        "meta_ephemeris_type": 0,
        "meta_classification_type": "U",
        "meta_norad_cat_id": 34626,
        "meta_element_set_no": 999,
        "meta_rev_at_epoch": 89206,
        "meta_bstar": 0.00080627473,
        "meta_mean_motion_dot": 5.09e-05,
        "meta_mean_motion_ddot": 0,
        "tle_line1": "1 34626U 93036WX  25350.93967711  .00005090  00000+0  80627-3 0  9999",
        "tle_line2": "2 34626  74.0479 315.7274 0026771  42.6917  16.8147 14.72248793892064"
      },
      "geometry": {
        "type": "Point",
        "coordinates": [
          -34.13014540745878,
          32.89501294468226
        ]
      }
    },
    {
      "type": "Feature",
      "properties": {
        "norad_id": 34634,
        "name": "COSMOS 2251 DEB",
        "group": "cosmos-2251-debris",
        "lat": -60.73404100900618,
        "lon": -4.166001281902507,
        "alt_km": 743.6422829239527,
        "timestamp": "2025-12-17T04:57:44.755583+00:00",
        "meta_object_name": "COSMOS 2251 DEB",
        "meta_object_id": "1993-036XF",
        "meta_epoch": "2025-12-16T13:27:19.630368",
        "meta_mean_motion": 14.55669102,
        "meta_eccentricity": 0.00439428,
        "meta_inclination": 74.0518,
        "meta_ra_of_asc_node": 27.739,
        "meta_arg_of_pericenter": 134.009,
        "meta_mean_anomaly": 16.1842,
        "meta_ephemeris_type": 0,
        "meta_classification_type": "U",
        "meta_norad_cat_id": 34634,
        "meta_element_set_no": 999,
        "meta_rev_at_epoch": 88837,
        "meta_bstar": 0.00027750807,
        "meta_mean_motion_dot": 1.199e-05,
        "meta_mean_motion_ddot": 0,
        "tle_line1": "1 34634U 93036XF  25350.56064387  .00001199  00000+0  27751-3 0  9999",
        "tle_line2": "2 34634  74.0518  27.7390 0043942 134.0090  16.1842 14.55669102888379"
      },
      "geometry": {
        "type": "Point",
        "coordinates": [
          -4.166001281902507,
          -60.73404100900618
        ]
      }
    },
    {
      "type": "Feature",
      "properties": {
        "norad_id": 34635,
        "name": "COSMOS 2251 DEB",
        "group": "cosmos-2251-debris",
        "lat": -0.8185644441279918,
        "lon": 61.848884037558555,
        "alt_km": 681.9305161771626,
        "timestamp": "2025-12-17T04:57:44.755592+00:00",
        "meta_object_name": "COSMOS 2251 DEB",
        "meta_object_id": "1993-036XG",
        "meta_epoch": "2025-12-16T23:14:07.207008",
        "meta_mean_motion": 14.68324094,
        "meta_eccentricity": 0.0028184,
        "meta_inclination": 74.0463,
        "meta_ra_of_asc_node": 62.544,
        "meta_arg_of_pericenter": 129.8872,
        "meta_mean_anomaly": 48.7627,
        "meta_ephemeris_type": 0,
        "meta_classification_type": "U",
        "meta_norad_cat_id": 34635,
        "meta_element_set_no": 999,
        "meta_rev_at_epoch": 73281,
        "meta_bstar": 0.00084811589,
        "meta_mean_motion_dot": 4.898e-05,
        "meta_mean_motion_ddot": 0,
        "tle_line1": "1 34635U 93036XG  25350.96813897  .00004898  00000+0  84812-3 0  9992",
        "tle_line2": "2 34635  74.0463  62.5440 0028184 129.8872  48.7627 14.68324094732814"
      },
      "geometry": {
        "type": "Point",
        "coordinates": [
          61.848884037558555,
          -0.8185644441279918
        ]
      }
    }
  ]
}